[{"OBJECT_NAME":"KANOPUS-V-IK","OBJECT_ID":"2017-042A","EPOCH":"2026-03-09T19:17:12.916608","MEAN_MOTION":15.22854595,"ECCENTRICITY":0.00016151,"INCLINATION":97.364,"RA_OF_ASC_NODE":336.3354,"ARG_OF_PERICENTER":87.4516,"MEAN_ANOMALY":272.6906,"EPHEMERIS_TYPE":0,"CLASSIFICATION_TYPE":"U","NORAD_CAT_ID":42825,"ELEMENT_SET_NO":999,"REV_AT_EPOCH":48024,"BSTAR":0.00016848135,"MEAN_MOTION_DOT":3.875e-5,"MEAN_MOTION_DDOT":0},{"OBJECT_NAME":"FENGYUN 1C DEB","OBJECT_ID":"1999-025EJQ","EPOCH":"2026-03-08T21:27:56.444256","MEAN_MOTION":15.23229897,"ECCENTRICITY":0.00101559,"INCLINATION":98.6645,"RA_OF_ASC_NODE":227.592,"ARG_OF_PERICENTER":263.6857,"MEAN_ANOMALY":96.3219,"EPHEMERIS_TYPE":0,"CLASSIFICATION_TYPE":"U","NORAD_CAT_ID":37470,"ELEMENT_SET_NO":999,"REV_AT_EPOCH":66762,"BSTAR":0.011057202,"MEAN_MOTION_DOT":0.00271626,"MEAN_MOTION_DDOT":0}]
